0 OPS 4682 DEB
1 38368U 65027BV  23318.37128608  .00000112  00000-0  37040-3 0  9991
2 38368  90.2456 351.8424 0023998 105.7535 254.6233 12.95648524540190
0 OPS 4682 DEB
1 38369U 65027BW  23318.81224704  .00000036  00000-0  97795-4 0  9994
2 38369  90.2455 345.4523 0028417  18.4123 341.8020 12.97740772430374
0 OPS 4682 DEB
1 38370U 65027BX  23318.34726722 -.00000293  00000-0 -99700-3 0  9995
2 38370  90.2512 350.2654 0023207 252.2307 107.6282 12.99935463482878
0 OPS 4682 DEB
1 38372U 65027BZ  23319.11918778 -.00000064  00000-0 -24512-3 0  9992
2 38372  90.2777  14.7660 0031628   7.7915 352.3690 12.97341360 63463
0 OPS 4682 DEB
1 38373U 65027CA  23317.84241945  .00000602  00000-0  19625-2 0  9990
2 38373  90.2509   7.9515 0032574 169.8613 190.3174 13.00348189 38309
0 OPS 4682 DEB
1 38374U 65027CB  23318.53928963  .00000699  00000-0  22777-2 0  9998
2 38374  90.2447 352.6623 0023029 197.0212 163.0140 13.00581387489673
0 OPS 4682 DEB
1 38375U 65027CC  23318.31794546  .00000329  00000-0  11540-2 0  9999
2 38375  90.2445 346.3579 0032321 164.3192 195.8936 12.94409412493739
0 OPS 4682 DEB
1 38376U 65027CD  23318.81451900  .00000114  00000-0  37773-3 0  9998
2 38376  90.2435 349.9573 0030871 103.0088 257.4481 12.95362932539371
0 OPS 4682 DEB
1 38377U 65027CE  23318.80146537  .00000079  00000-0  25099-3 0  9993
2 38377  90.2493 349.9116 0036450  77.6284 282.8912 12.96105994481610
0 OPS 4682 DEB
1 38378U 65027CF  23317.24473279  .00000495  00000-0  15576-2 0  9997
2 38378  90.2708 317.4148 0034922 182.9553 177.1370 13.02592864495697
0 OPS 4682 DEB
1 38379U 65027CG  23317.51501098  .00000673  00000-0  22149-2 0  9991
2 38379  90.2456 343.1838 0026433 219.2816 140.6389 12.99821298509449
0 OPS 4682 DEB
1 38380U 65027CH  23315.39961540  .00000806  00000-0  26990-2 0  9995
2 38380  90.2906 297.1060 0016765 304.2318  55.7214 12.98830526454406
0 OPS 4682 DEB
1 38381U 65027CJ  23318.37245912 -.00000334  00000-0 -11427-2 0  9992
2 38381  90.2459 356.7410 0020494 220.0059 139.9554 12.99513956463219
0 OPS 4682 DEB
1 38382U 65027CK  23311.52229282 -.00000172  00000-0 -62978-3 0  9993
2 38382  90.2567 347.2183 0023612 142.7322 217.5441 12.96120362939072
0 OPS 4682 DEB
1 38383U 65027CL  23318.09492313  .00000781  00000-0  27022-2 0  9994
2 38383  90.2479 350.7250 0030041  85.6551 274.8001 12.96342031460999
0 OPS 4682 DEB
1 38384U 65027CM  23317.09508224  .00000797  00000-0  27041-2 0  9991
2 38384  90.2576 354.7747 0015138 334.9144  25.1240 12.97937007541447
0 OPS 4682 DEB
1 38385U 65027CN  23318.48029992 -.00000016  00000-0 -81280-4 0  9999
2 38385  90.2539 337.6765 0046109  42.7555 317.7137 12.96255555492911
0 OPS 4682 DEB
1 38386U 65027CP  23318.14480095  .00001095  00000-0  35768-2 0  9992
2 38386  90.2595  10.4472 0033150 197.5977 162.3999 13.00570248534668
0 OPS 4682 DEB
1 38387U 65027CQ  23318.83580718  .00000582  00000-0  20172-2 0  9995
2 38387  90.2498 344.1470 0023288  72.8668 287.5000 12.96015467941733
0 OPS 4682 DEB
1 38388U 65027CR  23318.40561525  .00000476  00000-0  15615-2 0  9992
2 38388  90.2553   0.3578 0032130 332.0827  27.8570 12.99640313541167
0 OPS 4682 DEB
1 38389U 65027CS  23314.93142526  .00000485  00000-0  16004-2 0  9996
2 38389  90.2818  15.7303 0009833 272.7360  87.2636 12.99507761958539
0 OPS 4682 DEB
1 38390U 65027CT  23318.32484995 -.00000130  00000-0 -47368-3 0  9991
2 38390  90.2474 338.3003 0030735  32.6184 327.6827 12.97171236490044
0 OPS 4682 DEB
1 38391U 65027CU  23315.09164032  .00000935  00000-0  31739-2 0  9995
2 38391  90.2273 348.5071 0042431  38.3936 322.0191 12.97667732476648
0 OPS 4682 DEB
1 38392U 65027CV  23319.35322856  .00000028  00000-0  73646-4 0  9997
2 38392  90.2465 352.2092 0031969 127.7090 232.6934 12.94856044933197
0 OPS 4682 DEB
1 38393U 65027CW  23319.08530059  .00000650  00000-0  22033-2 0  9997
2 38393  90.2470 355.2864 0024710 352.2840   7.7898 12.97784458975118
0 OPS 4682 DEB
1 38394U 65027CX  23318.84658164 -.00000246  00000-0 -85192-3 0  9998
2 38394  90.2523   1.8776 0029720 331.6445  28.3058 12.99151965942273
0 OPS 4682 DEB
1 38395U 65027CY  23318.09035810  .00000580  00000-0  19582-2 0  9991
2 38395  90.2496 356.5255 0029265 313.1087  46.7586 12.97855836972365
0 OPS 4682 DEB
1 38396U 65027CZ  23317.09134856  .00000653  00000-0  22238-2 0  9994
2 38396  90.2508 349.7848 0037034  69.2751 291.2333 12.97271137540377
0 OPS 4682 DEB
1 38397U 65027DA  23318.82310232 -.00000208  00000-0 -72015-3 0  9998
2 38397  90.2441 356.2297 0038527 232.9870 126.7724 12.99361608540050
0 OPS 4682 DEB
1 38398U 65027DB  23318.83249690  .00000030  00000-0  79053-4 0  9990
2 38398  90.2540 355.6314 0023914  84.6118 275.7730 12.96691382540712
0 OPS 4682 DEB
1 38399U 65027DC  23318.54797937  .00000455  00000-0  15642-2 0  9994
2 38399  90.2471 355.7350 0028004  92.6934 267.7392 12.96266921540214
0 OPS 4682 DEB
1 38400U 65027DD  23318.86231962  .00000717  00000-0  24291-2 0  9994
2 38400  90.2461 355.7696 0030914 338.2574  21.7233 12.97834846491610
0 OPS 4682 DEB
1 38401U 65027DE  23319.04432089 -.00000038  00000-0 -16384-3 0  9992
2 38401  90.2459 347.6672 0032761 145.9428 214.3803 12.94791782206104
0 OPS 4682 DEB
1 38402U 65027DF  23317.35293506  .00000251  00000-0  88821-3 0  9994
2 38402  90.2467 344.3503 0027294 216.9248 142.9991 12.93328808464671
0 OPS 4682 DEB
1 38403U 65027DG  23319.07155597  .00000262  00000-0  91883-3 0  9997
2 38403  90.2464 349.8269 0029149 149.1908 211.0929 12.93956434209688
0 OPS 4682 DEB
1 38404U 65027DH  23318.49780860 -.00000268  00000-0 -92822-3 0  9992
2 38404  90.2463 345.3895 0018946 281.8479  78.0517 12.99081780542003
0 OPS 4682 DEB
1 38405U 65027DJ  23318.86777773  .00000429  00000-0  14253-2 0  9991
2 38405  90.2510 359.9638 0003359 183.0001 177.1100 12.98799873542310
0 OPS 4682 DEB
1 38406U 65027DK  23311.85574483  .00000722  00000-0  23860-2 0  9997
2 38406  90.2432 350.1213 0025080 245.7399 114.1103 12.99632145431531
0 OPS 4682 DEB
1 38408U 65027DM  23318.52218474 -.00000314  00000-0 -10457-2 0  9992
2 38408  90.2798 351.0919 0043395 161.9717 198.2956 13.01373723740500
0 OPS 4682 DEB
1 38409U 65027DN  23318.83675700  .00000944  00000-0  31688-2 0  9992
2 38409  90.2666   3.0338 0040659 326.3867  33.4676 12.98560169 65075
0 OPS 4682 DEB
1 38410U 65027DP  23319.08050825  .00000752  00000-0  25752-2 0  9999
2 38410  90.2438 349.8540 0033838  71.1700 289.3085 12.96985283230999
0 OPS 4682 DEB
1 38411U 65027DQ  23319.07118274  .00000076  00000-0  23836-3 0  9993
2 38411  90.2473 354.6710 0040803  60.9462 299.5735 12.96352612122879
0 OPS 4682 DEB
1 38412U 65027DR  23318.50256671  .00000183  00000-0  63358-3 0  9997
2 38412  90.2441 342.6965 0030853 209.9059 150.0298 12.94180874508303
0 OPS 4682 DEB
1 38413U 65027DS  23316.33078303  .00000608  00000-0  20138-2 0  9991
2 38413  90.2459 349.2828 0028377 276.2089  83.5800 12.99295589  2158
0 OPS 4682 DEB
1 38414U 65027DT  23318.78956733  .00000633  00000-0  21495-2 0  9990
2 38414  90.2551 331.3410 0040358  81.5585 279.0107 12.97376192 18182
0 OPS 4682 DEB
1 38415U 65027DU  23319.06374072 -.00000024  00000-0 -10337-3 0  9993
2 38415  90.2418 353.2221 0029733 102.8026 257.6422 13.01664385 21860
0 OPS 4682 DEB
1 38416U 65027DV  23319.06566574  .00000433  00000-0  15041-2 0  9992
2 38416  90.2453 348.6573 0033088 103.1489 257.3326 12.95407013875933
0 OPS 4682 DEB
1 38417U 65027DW  23318.34040771  .00000140  00000-0  46400-3 0  9998
2 38417  90.2472 351.0550 0036189 110.6773 249.8233 12.96019475484135
0 OPS 4682 DEB
1 38418U 65027DX  23318.37270214  .00000735  00000-0  24044-2 0  9998
2 38418  90.2432 347.8729 0028882 199.2352 160.7682 13.00248029428604
0 OPS 4682 DEB
1 38419U 65027DY  23314.83585226  .00000372  00000-0  13020-2 0  9997
2 38419  90.2484 344.9294 0031841 145.7345 214.5837 12.94700325178206
0 OPS 4682 DEB
1 38420U 65027DZ  23317.34047609  .00000156  00000-0  49830-3 0  9995
2 38420  90.2473 349.6441 0028293 253.6388 106.1622 12.99318661431398
0 OPS 4682 DEB
1 38421U 65027EA  23318.51424039  .00000339  00000-0  97383-3 0  9991
2 38421  90.2642 346.2521 0039047 299.7576  59.9669 13.08328770 24654
0 OPS 4682 DEB
1 38422U 65027EB  23318.56602577  .00000447  00000-0  15188-2 0  9994
2 38422  90.2488   2.2758 0035358  33.7873 326.5490 12.97005847540518
0 OPS 4682 DEB
1 38423U 65027EC  23318.87063022  .00000627  00000-0  22129-2 0  9998
2 38423  90.2550 350.3191 0023825 194.1800 165.8653 12.94898643982353
0 OPS 4682 DEB
1 38424U 65027ED  23318.31216295  .00001050  00000-0  33072-2 0  9990
2 38424  90.2622 344.8730 0029442 157.2706 202.9729 13.03146762188597
0 OPS 4682 DEB
1 38425U 65027EE  23318.50732752  .00000248  00000-0  86195-3 0  9996
2 38425  90.2492 346.5787 0033541 188.1776 171.8800 12.94530518838860
0 OPS 4682 DEB
1 38426U 65027EF  23318.85054195  .00000465  00000-0  16122-2 0  9996
2 38426  90.2451 349.1191 0037125 113.0089 247.4953 12.95650717512627
0 OPS 4682 DEB
1 38427U 65027EG  23318.79714826  .00000261  00000-0  94385-3 0  9996
2 38427  90.2466 340.1837 0033240 124.7353 235.6902 12.91817793539705
0 OPS 4682 DEB
1 38428U 65027EH  23318.36075598 -.00000011  00000-0 -63742-4 0  9995
2 38428  90.2466 352.0470 0048005  25.9105 334.4404 12.96926001475288
0 OPS 4682 DEB
1 38429U 65027EJ  23317.81959796  .00000678  00000-0  23029-2 0  9995
2 38429  90.2470 339.9858 0040609   8.1321 352.0449 12.97429728466676
0 OPS 4682 DEB
1 38430U 65027EK  23318.54110696  .00000155  00000-0  49826-3 0  9990
2 38430  90.2521   0.2759 0050698 325.8648  33.9216 12.98862712454739
0 OPS 4682 DEB
1 38431U 65027EL  23318.30782951 -.00000247  00000-0 -84652-3 0  9994
2 38431  90.2500 336.5907 0024271 212.5069 147.4560 12.99979252541643
0 OPS 4682 DEB
1 38433U 65027EN  23318.51891833  .00000275  00000-0  76158-3 0  9990
2 38433  90.2557 350.7124 0027724 209.7335 150.2219 13.10679763507896
0 OPS 4682 DEB
1 38434U 65027EP  23318.78073188  .00000319  00000-0  10871-2 0  9993
2 38434  90.2490 344.8745 0032255 168.9506 191.2330 12.96337018539977
